start=new Date('2021-11-07T00:00:00.000Z').valueOf();
sats=[{"GP_ID":"189127968","NORAD_CAT_ID":"46074","RCS_SIZE":"LARGE","OBJECT_TYPE":"PAYLOAD","INCLINATION":"53.0539","MEAN_MOTION":"15.06351359","PERIAPSIS":"546.367","MEAN_ELEMENT_THEORY":"SGP4","COUNTRY_CODE":"US","REV_AT_EPOCH":"7052","FILE":"3206165","CENTER_NAME":"EARTH","MEAN_MOTION_DOT":"-0.00029741","TLE_LINE2":"2 46074  53.0539   8.3415 0001437  83.9717 276.1436 15.06351359 70520","EPHEMERIS_TYPE":"0","RA_OF_ASC_NODE":"8.3415","BSTAR":"-0.00198870000000","OBJECT_NAME":"STARLINK-1549","SEMIMAJOR_AXIS":"6925.498","ELEMENT_SET_NO":"999","CLASSIFICATION_TYPE":"U","ARG_OF_PERICENTER":"83.9717","SITE":"AFETR","EPOCH":"2021-11-06T11:54:59.035104","TIME_SYSTEM":"UTC","TLE_LINE1":"1 46074U 20055AZ  21310.49651661 -.00029741  00000-0 -19887-2 0  9998","ECCENTRICITY":"0.00014370","APOAPSIS":"548.358","OBJECT_ID":"2020-055AZ","MEAN_MOTION_DDOT":"0.0000000000000","MEAN_ANOMALY":"276.1436","DECAY_DATE":null,"REF_FRAME":"TEME","LAUNCH_DATE":"2020-08-07","PERIOD":"95.595"},{"BSTAR":"-0.00094045000000","OBJECT_NAME":"STARLINK-1551","ELEMENT_SET_NO":"999","SEMIMAJOR_AXIS":"6925.493","COUNTRY_CODE":"US","REV_AT_EPOCH":"7001","FILE":"3205885","PERIAPSIS":"546.437","MEAN_ELEMENT_THEORY":"SGP4","EPHEMERIS_TYPE":"0","RA_OF_ASC_NODE":"7.9383","CENTER_NAME":"EARTH","TLE_LINE2":"2 46075  53.0539   7.9383 0001331  77.7328 282.3810 15.06352722 70016","MEAN_MOTION_DOT":"-0.00014244","INCLINATION":"53.0539","OBJECT_TYPE":"PAYLOAD","MEAN_MOTION":"15.06352722","NORAD_CAT_ID":"46075","RCS_SIZE":"LARGE","GP_ID":"189102361","MEAN_ANOMALY":"282.3810","DECAY_DATE":null,"REF_FRAME":"TEME","LAUNCH_DATE":"2020-08-07","PERIOD":"95.595","OBJECT_ID":"2020-055BA","MEAN_MOTION_DDOT":"0.0000000000000","EPOCH":"2021-11-06T14:07:42.153312","TIME_SYSTEM":"UTC","SITE":"AFETR","APOAPSIS":"548.280","TLE_LINE1":"1 46075U 20055BA  21310.58868233 -.00014244  00000-0 -94045-3 0  9996","ECCENTRICITY":"0.00013310","ARG_OF_PERICENTER":"77.7328","CLASSIFICATION_TYPE":"U"},{"BSTAR":"-0.00129060000000","SEMIMAJOR_AXIS":"6925.464","ELEMENT_SET_NO":"999","OBJECT_NAME":"STARLINK-1552","FILE":"3205833","REV_AT_EPOCH":"7000","COUNTRY_CODE":"US","MEAN_ELEMENT_THEORY":"SGP4","PERIAPSIS":"546.354","RA_OF_ASC_NODE":"8.1167","EPHEMERIS_TYPE":"0","TLE_LINE2":"2 46076  53.0545   8.1167 0001408  81.5647 278.5502 15.06362379 70002","MEAN_MOTION_DOT":"-0.00019433","CENTER_NAME":"EARTH","INCLINATION":"53.0545","OBJECT_TYPE":"PAYLOAD","MEAN_MOTION":"15.06362379","RCS_SIZE":"LARGE","NORAD_CAT_ID":"46076","GP_ID":"189101866","DECAY_DATE":null,"REF_FRAME":"TEME","LAUNCH_DATE":"2020-08-07","PERIOD":"95.595","MEAN_ANOMALY":"278.5502","OBJECT_ID":"2020-055BB","MEAN_MOTION_DDOT":"0.0000000000000","EPOCH":"2021-11-06T13:09:17.618112","TIME_SYSTEM":"UTC","SITE":"AFETR","APOAPSIS":"548.304","ECCENTRICITY":"0.00014080","TLE_LINE1":"1 46076U 20055BB  21310.54812058 -.00019433  00000-0 -12906-2 0  9997","ARG_OF_PERICENTER":"81.5647","CLASSIFICATION_TYPE":"U"},{"CLASSIFICATION_TYPE":"U","ARG_OF_PERICENTER":"86.9656","SITE":"AFETR","TIME_SYSTEM":"UTC","EPOCH":"2021-11-06T12:42:46.487808","TLE_LINE1":"1 46077U 20055BC  21310.52970472 -.00031172  00000-0 -20847-2 0  9998","ECCENTRICITY":"0.00014270","APOAPSIS":"548.296","OBJECT_ID":"2020-055BC","MEAN_MOTION_DDOT":"0.0000000000000","MEAN_ANOMALY":"273.1496","DECAY_DATE":null,"LAUNCH_DATE":"2020-08-07","PERIOD":"95.594","REF_FRAME":"TEME","GP_ID":"189129220","NORAD_CAT_ID":"46077","RCS_SIZE":"LARGE","OBJECT_TYPE":"PAYLOAD","INCLINATION":"53.0543","MEAN_MOTION":"15.06369224","PERIAPSIS":"546.320","MEAN_ELEMENT_THEORY":"SGP4","REV_AT_EPOCH":"7049","COUNTRY_CODE":"US","FILE":"3206165","CENTER_NAME":"EARTH","TLE_LINE2":"2 46077  53.0543   8.1906 0001427  86.9656 273.1496 15.06369224 70494","MEAN_MOTION_DOT":"-0.00031172","EPHEMERIS_TYPE":"0","RA_OF_ASC_NODE":"8.1906","BSTAR":"-0.00208470000000","OBJECT_NAME":"STARLINK-1559","SEMIMAJOR_AXIS":"6925.443","ELEMENT_SET_NO":"999"},{"INCLINATION":"53.0550","OBJECT_TYPE":"PAYLOAD","MEAN_MOTION":"15.06373875","NORAD_CAT_ID":"46078","RCS_SIZE":"LARGE","GP_ID":"189128468","BSTAR":"-0.00180200000000","OBJECT_NAME":"STARLINK-1563","SEMIMAJOR_AXIS":"6925.429","ELEMENT_SET_NO":"999","COUNTRY_CODE":"US","REV_AT_EPOCH":"7049","FILE":"3206165","PERIAPSIS":"546.339","MEAN_ELEMENT_THEORY":"SGP4","EPHEMERIS_TYPE":"0","RA_OF_ASC_NODE":"8.5937","CENTER_NAME":"EARTH","MEAN_MOTION_DOT":"-0.00027002","TLE_LINE2":"2 46078  53.0550   8.5937 0001378  69.6921 290.4216 15.06373875 70498","EPOCH":"2021-11-06T10:35:21.982560","TIME_SYSTEM":"UTC","SITE":"AFETR","APOAPSIS":"548.248","TLE_LINE1":"1 46078U 20055BD  21310.44122665 -.00027002  00000-0 -18020-2 0  9990","ECCENTRICITY":"0.00013780","CLASSIFICATION_TYPE":"U","ARG_OF_PERICENTER":"69.6921","MEAN_ANOMALY":"290.4216","DECAY_DATE":null,"PERIOD":"95.594","LAUNCH_DATE":"2020-08-07","REF_FRAME":"TEME","OBJECT_ID":"2020-055BD","MEAN_MOTION_DDOT":"0.0000000000000"},{"OBJECT_ID":"2020-055BE","MEAN_MOTION_DDOT":"0.0000000000000","MEAN_ANOMALY":"295.7264","LAUNCH_DATE":"2020-08-07","DECAY_DATE":null,"REF_FRAME":"TEME","PERIOD":"95.594","CLASSIFICATION_TYPE":"U","ARG_OF_PERICENTER":"64.3875","TIME_SYSTEM":"UTC","EPOCH":"2021-11-06T10:24:44.959680","SITE":"AFETR","APOAPSIS":"548.294","TLE_LINE1":"1 46079U 20055BE  21310.43385370 -.00021101  00000-0 -14028-2 0  9992","ECCENTRICITY":"0.00014530","REV_AT_EPOCH":"7052","COUNTRY_CODE":"US","FILE":"3206165","PERIAPSIS":"546.282","MEAN_ELEMENT_THEORY":"SGP4","RA_OF_ASC_NODE":"8.6239","EPHEMERIS_TYPE":"0","CENTER_NAME":"EARTH","TLE_LINE2":"2 46079  53.0542   8.6239 0001453  64.3875 295.7264 15.06375769 70529","MEAN_MOTION_DOT":"-0.00021101","BSTAR":"-0.00140280000000","OBJECT_NAME":"STARLINK-1566","SEMIMAJOR_AXIS":"6925.423","ELEMENT_SET_NO":"999","RCS_SIZE":"LARGE","NORAD_CAT_ID":"46079","GP_ID":"189128718","INCLINATION":"53.0542","OBJECT_TYPE":"PAYLOAD","MEAN_MOTION":"15.06375769"},{"OBJECT_ID":"2020-055BF","MEAN_MOTION_DDOT":"0.0000000000000","LAUNCH_DATE":"2020-08-07","DECAY_DATE":null,"REF_FRAME":"TEME","PERIOD":"95.597","MEAN_ANOMALY":"290.5108","CLASSIFICATION_TYPE":"U","ARG_OF_PERICENTER":"69.6045","SITE":"AFETR","EPOCH":"2021-11-06T18:59:38.232672","TIME_SYSTEM":"UTC","ECCENTRICITY":"0.00015310","TLE_LINE1":"1 46080U 20055BF  21310.79141473 -.00032507  00000-0 -21780-2 0  9992","APOAPSIS":"548.514","MEAN_ELEMENT_THEORY":"SGP4","PERIAPSIS":"546.393","FILE":"3205838","COUNTRY_CODE":"US","REV_AT_EPOCH":"7004","TLE_LINE2":"2 46080  53.0536   7.0274 0001531  69.6045 290.5108 15.06321646 70042","MEAN_MOTION_DOT":"-0.00032507","CENTER_NAME":"EARTH","RA_OF_ASC_NODE":"7.0274","EPHEMERIS_TYPE":"0","BSTAR":"-0.00217800000000","SEMIMAJOR_AXIS":"6925.589","ELEMENT_SET_NO":"999","OBJECT_NAME":"STARLINK-1568","GP_ID":"189101940","NORAD_CAT_ID":"46080","RCS_SIZE":"LARGE","OBJECT_TYPE":"PAYLOAD","INCLINATION":"53.0536","MEAN_MOTION":"15.06321646"},{"INCLINATION":"53.0540","OBJECT_TYPE":"PAYLOAD","MEAN_MOTION":"15.06389046","NORAD_CAT_ID":"46081","RCS_SIZE":"LARGE","GP_ID":"189129720","BSTAR":"0.00014195000000","SEMIMAJOR_AXIS":"6925.382","ELEMENT_SET_NO":"999","OBJECT_NAME":"STARLINK-1571","FILE":"3206165","COUNTRY_CODE":"US","REV_AT_EPOCH":"7051","MEAN_ELEMENT_THEORY":"SGP4","PERIAPSIS":"546.334","EPHEMERIS_TYPE":"0","RA_OF_ASC_NODE":"8.6581","TLE_LINE2":"2 46081  53.0540   8.6581 0001319  71.0164 289.0968 15.06389046 70516","MEAN_MOTION_DOT":"0.00001833","CENTER_NAME":"EARTH","TIME_SYSTEM":"UTC","EPOCH":"2021-11-06T10:14:09.578400","SITE":"AFETR","APOAPSIS":"548.161","ECCENTRICITY":"0.00013190","TLE_LINE1":"1 46081U 20055BG  21310.42649975  .00001833  00000-0  14195-3 0  9992","CLASSIFICATION_TYPE":"U","ARG_OF_PERICENTER":"71.0164","PERIOD":"95.593","DECAY_DATE":null,"LAUNCH_DATE":"2020-08-07","REF_FRAME":"TEME","MEAN_ANOMALY":"289.0968","OBJECT_ID":"2020-055BG","MEAN_MOTION_DDOT":"0.0000000000000"},{"ARG_OF_PERICENTER":"84.5061","CLASSIFICATION_TYPE":"U","APOAPSIS":"548.281","TLE_LINE1":"1 46082U 20055BH  21310.51495297 -.00029499  00000-0 -19715-2 0  9991","ECCENTRICITY":"0.00013910","EPOCH":"2021-11-06T12:21:31.936608","TIME_SYSTEM":"UTC","SITE":"AFETR","MEAN_MOTION_DDOT":"0.0000000000000","OBJECT_ID":"2020-055BH","MEAN_ANOMALY":"275.6087","PERIOD":"95.594","DECAY_DATE":null,"LAUNCH_DATE":"2020-08-07","REF_FRAME":"TEME","NORAD_CAT_ID":"46082","RCS_SIZE":"LARGE","GP_ID":"189127969","MEAN_MOTION":"15.06366100","INCLINATION":"53.0541","OBJECT_TYPE":"PAYLOAD","EPHEMERIS_TYPE":"0","RA_OF_ASC_NODE":"8.2580","CENTER_NAME":"EARTH","TLE_LINE2":"2 46082  53.0541   8.2580 0001391  84.5061 275.6087 15.06366100 70539","MEAN_MOTION_DOT":"-0.00029499","COUNTRY_CODE":"US","REV_AT_EPOCH":"7053","FILE":"3206165","PERIAPSIS":"546.354","MEAN_ELEMENT_THEORY":"SGP4","OBJECT_NAME":"STARLINK-1578","ELEMENT_SET_NO":"999","SEMIMAJOR_AXIS":"6925.452","BSTAR":"-0.00197150000000"},{"MEAN_ANOMALY":"276.5663","REF_FRAME":"TEME","DECAY_DATE":null,"LAUNCH_DATE":"2020-08-07","PERIOD":"95.595","OBJECT_ID":"2020-055BJ","MEAN_MOTION_DDOT":"0.0000000000000","TIME_SYSTEM":"UTC","EPOCH":"2021-11-06T13:14:36.299328","SITE":"AFETR","APOAPSIS":"548.302","TLE_LINE1":"1 46083U 20055BJ  21310.55180902 -.00029840  00000-0 -19951-2 0  9992","ECCENTRICITY":"0.00013800","CLASSIFICATION_TYPE":"U","ARG_OF_PERICENTER":"83.5483","BSTAR":"-0.00199510000000","OBJECT_NAME":"STARLINK-1579","ELEMENT_SET_NO":"999","SEMIMAJOR_AXIS":"6925.482","COUNTRY_CODE":"US","REV_AT_EPOCH":"7000","FILE":"3205846","PERIAPSIS":"546.391","MEAN_ELEMENT_THEORY":"SGP4","RA_OF_ASC_NODE":"8.0908","EPHEMERIS_TYPE":"0","CENTER_NAME":"EARTH","TLE_LINE2":"2 46083  53.0539   8.0908 0001380  83.5483 276.5663 15.06356572 70008","MEAN_MOTION_DOT":"-0.00029840","INCLINATION":"53.0539","OBJECT_TYPE":"PAYLOAD","MEAN_MOTION":"15.06356572","NORAD_CAT_ID":"46083","RCS_SIZE":"LARGE","GP_ID":"189102986"}];
